0 FENGYUN 1C DEB
1 37713U 99025EME 13288.90602440  .00001001  00000-0  88822-3 0   717
2 37713 098.0922 314.0384 0159893 245.3787 113.5991 13.81172752254127
0 FENGYUN 1C DEB
1 37713U 99025EME 13289.92011577  .00001515  00000-0  13297-2 0   729
2 37713 098.0952 314.9087 0159483 243.0608 115.4397 13.81184154254266
0 FENGYUN 1C DEB
1 37713U 99025EME 13292.89023742  .00001530  00000-0  13420-2 0   732
2 37713 098.0952 317.4580 0159245 234.8798 123.7329 13.81193659254678
